*******************************************************************************
Ephemeris / WWW_USER Mon Mar 10 08:35:48 2025 Pasadena, USA      / Horizons    
*******************************************************************************
Target body name: (2017 UW51)                     {source: JPL#9}
Center body name: Earth (399)                     {source: DE441}
Center-site name: Mauna Kea
*******************************************************************************
Start time      : A.D. 2018-Nov-23 03:51:00.0000 UT      
Stop  time      : A.D. 2018-Nov-23 16:25:00.0000 UT      
Step-size       : 1 minutes
*******************************************************************************
Target pole/equ : undefined
Target radii    : undefined                                                    
Center geodetic : 204.5278, 19.8260847, 4.21024   {E-lon(deg),Lat(deg),Alt(km)}
Center cylindric: 204.5278, 6006.35451, 2151.0229 {E-lon(deg),Dxy(km),Dz(km)}
Center pole/equ : ITRF93                          {East-longitude positive}
Center radii    : 6378.137, 6378.137, 6356.752 km {Equator_a, b, pole_c}       
Target primary  : Sun
Vis. interferer : MOON (R_eq= 1737.400) km        {source: DE441}
Rel. light bend : Sun                             {source: DE441}
Rel. lght bnd GM: 1.3271E+11 km^3/s^2                                          
Small-body perts: Yes                             {source: SB441-N16}
Atmos refraction: NO (AIRLESS)
RA format       : HMS
Time format     : CAL 
Calendar mode   : Mixed Julian/Gregorian
RTS-only print  : NO       
EOP file        : eop.250307.p250603                                           
EOP coverage    : DATA-BASED 1962-JAN-20 TO 2025-MAR-07. PREDICTS-> 2025-JUN-02
Units conversion: 1 au= 149597870.700 km, c= 299792.458 km/s, 1 day= 86400.0 s 
Table cut-offs 1: Elevation (-90.0deg=NO ),Airmass (>38.000=NO), Daylight (YES)
Table cut-offs 2: Solar elongation (  0.0,180.0=NO ),Local Hour Angle( 0.0=NO )
Table cut-offs 3: RA/DEC angular rate (     0.0=NO )                           
*******************************************************************************
Initial IAU76/J2000 heliocentric ecliptic osculating elements (au, days, deg.):
  EPOCH=  2458075.5 ! 2017-Nov-18.00 (TDB)         Residual RMS= .20188        
   EC= .977323227404683    QR= 3.132710376610715   TP= 2458155.1551369466      
   OM= 241.7154477774366   W=  216.6888678209022   IN= 144.2025603349357       
  Equivalent ICRF heliocentric cartesian coordinates (au, au/d):
   X= 2.139353138138251E+00  Y= 2.375029509283225E+00  Z= 4.232007070438896E-01
  VX= 5.707101564767909E-03 VY=-6.350221743649190E-03 VZ=-1.041670648532765E-02
Asteroid physical parameters (km, seconds, rotational period in hours):        
   GM= n.a.                RAD= n.a.               ROTPER= n.a.                
   H= 15.3                 G= .150                 B-V= n.a.                   
                           ALBEDO= n.a.            STYP= n.a.                  
*******************************************************************************
 Date__(UT)__HR:MN     R.A._________(ICRF)_________DEC
******************************************************
$$SOE
 2018-Nov-23 12:03  m  21 34 26.983027 -50 09 51.25150
 2018-Nov-23 12:04  m  21 34 26.964048 -50 09 50.93575
 2018-Nov-23 12:05  m  21 34 26.945074 -50 09 50.62001
 2018-Nov-23 12:06  m  21 34 26.926104 -50 09 50.30429
 2018-Nov-23 12:07  m  21 34 26.907137 -50 09 49.98859
 2018-Nov-23 12:08  m  21 34 26.888175 -50 09 49.67290
 2018-Nov-23 12:09  m  21 34 26.869216 -50 09 49.35723
 2018-Nov-23 12:10  m  21 34 26.850262 -50 09 49.04158
 2018-Nov-23 12:11  m  21 34 26.831311 -50 09 48.72595
 2018-Nov-23 12:12  m  21 34 26.812365 -50 09 48.41033
 2018-Nov-23 12:13  m  21 34 26.793422 -50 09 48.09473
 2018-Nov-23 12:14  m  21 34 26.774483 -50 09 47.77914
 2018-Nov-23 12:15  m  21 34 26.755548 -50 09 47.46358
 2018-Nov-23 12:16  m  21 34 26.736617 -50 09 47.14803
 2018-Nov-23 12:17  m  21 34 26.717690 -50 09 46.83250
 2018-Nov-23 12:18  m  21 34 26.698767 -50 09 46.51699
 2018-Nov-23 12:19  m  21 34 26.679848 -50 09 46.20149
 2018-Nov-23 12:20  m  21 34 26.660932 -50 09 45.88602
 2018-Nov-23 12:21  m  21 34 26.642020 -50 09 45.57056
 2018-Nov-23 12:22  m  21 34 26.623113 -50 09 45.25512
 2018-Nov-23 12:23  m  21 34 26.604209 -50 09 44.93970
 2018-Nov-23 12:24  m  21 34 26.585308 -50 09 44.62429
 2018-Nov-23 12:25  m  21 34 26.566412 -50 09 44.30891
 2018-Nov-23 12:26  m  21 34 26.547519 -50 09 43.99354
 2018-Nov-23 12:27  m  21 34 26.528630 -50 09 43.67819
 2018-Nov-23 12:28  m  21 34 26.509745 -50 09 43.36286
 2018-Nov-23 12:29  m  21 34 26.490864 -50 09 43.04755
 2018-Nov-23 12:30  m  21 34 26.471986 -50 09 42.73226
 2018-Nov-23 12:31  m  21 34 26.453112 -50 09 42.41699
 2018-Nov-23 12:32  m  21 34 26.434242 -50 09 42.10174
 2018-Nov-23 12:33  m  21 34 26.415376 -50 09 41.78651
 2018-Nov-23 12:34  m  21 34 26.396513 -50 09 41.47129
 2018-Nov-23 12:35  m  21 34 26.377654 -50 09 41.15610
 2018-Nov-23 12:36  m  21 34 26.358798 -50 09 40.84092
 2018-Nov-23 12:37  m  21 34 26.339947 -50 09 40.52577
 2018-Nov-23 12:38  m  21 34 26.321099 -50 09 40.21063
 2018-Nov-23 12:39  m  21 34 26.302254 -50 09 39.89551
 2018-Nov-23 12:40  m  21 34 26.283413 -50 09 39.58042
 2018-Nov-23 12:41  m  21 34 26.264576 -50 09 39.26534
 2018-Nov-23 12:42  m  21 34 26.245743 -50 09 38.95029
 2018-Nov-23 12:43  m  21 34 26.226913 -50 09 38.63525
 2018-Nov-23 12:44  m  21 34 26.208086 -50 09 38.32023
 2018-Nov-23 12:45  m  21 34 26.189264 -50 09 38.00524
 2018-Nov-23 12:46  m  21 34 26.170444 -50 09 37.69026
 2018-Nov-23 12:47  m  21 34 26.151629 -50 09 37.37531
 2018-Nov-23 12:48  m  21 34 26.132817 -50 09 37.06038
 2018-Nov-23 12:49  m  21 34 26.114008 -50 09 36.74546
 2018-Nov-23 12:50  m  21 34 26.095203 -50 09 36.43057
 2018-Nov-23 12:51  m  21 34 26.076401 -50 09 36.11570
 2018-Nov-23 12:52  m  21 34 26.057603 -50 09 35.80085
 2018-Nov-23 12:53  m  21 34 26.038809 -50 09 35.48602
 2018-Nov-23 12:54  m  21 34 26.020018 -50 09 35.17121
 2018-Nov-23 12:55  m  21 34 26.001230 -50 09 34.85642
 2018-Nov-23 12:56  m  21 34 25.982446 -50 09 34.54166
 2018-Nov-23 12:57  m  21 34 25.963665 -50 09 34.22691
 2018-Nov-23 12:58  m  21 34 25.944887 -50 09 33.91219
 2018-Nov-23 12:59  m  21 34 25.926113 -50 09 33.59749
 2018-Nov-23 13:00  m  21 34 25.907343 -50 09 33.28281
 2018-Nov-23 13:01  m  21 34 25.888576 -50 09 32.96815
 2018-Nov-23 13:02  m  21 34 25.869812 -50 09 32.65351
 2018-Nov-23 13:03  m  21 34 25.851051 -50 09 32.33890
 2018-Nov-23 13:04  m  21 34 25.832294 -50 09 32.02430
 2018-Nov-23 13:05  m  21 34 25.813541 -50 09 31.70973
 2018-Nov-23 13:06  m  21 34 25.794790 -50 09 31.39518
 2018-Nov-23 13:07  m  21 34 25.776043 -50 09 31.08066
 2018-Nov-23 13:08  m  21 34 25.757299 -50 09 30.76615
 2018-Nov-23 13:09  m  21 34 25.738559 -50 09 30.45167
 2018-Nov-23 13:10  m  21 34 25.719821 -50 09 30.13721
 2018-Nov-23 13:11  m  21 34 25.701087 -50 09 29.82277
 2018-Nov-23 13:12  m  21 34 25.682356 -50 09 29.50836
 2018-Nov-23 13:13  m  21 34 25.663629 -50 09 29.19397
 2018-Nov-23 13:14  m  21 34 25.644905 -50 09 28.87960
 2018-Nov-23 13:15  m  21 34 25.626183 -50 09 28.56525
 2018-Nov-23 13:16  m  21 34 25.607465 -50 09 28.25093
 2018-Nov-23 13:17  m  21 34 25.588751 -50 09 27.93663
 2018-Nov-23 13:18  m  21 34 25.570039 -50 09 27.62235
 2018-Nov-23 13:19  m  21 34 25.551331 -50 09 27.30809
 2018-Nov-23 13:20  m  21 34 25.532625 -50 09 26.99386
 2018-Nov-23 13:21  m  21 34 25.513923 -50 09 26.67965
 2018-Nov-23 13:22  m  21 34 25.495224 -50 09 26.36547
 2018-Nov-23 13:23  m  21 34 25.476528 -50 09 26.05131
 2018-Nov-23 13:24  m  21 34 25.457835 -50 09 25.73717
 2018-Nov-23 13:25  m  21 34 25.439145 -50 09 25.42305
 2018-Nov-23 13:26  m  21 34 25.420459 -50 09 25.10896
 2018-Nov-23 13:27  m  21 34 25.401775 -50 09 24.79490
 2018-Nov-23 13:28  m  21 34 25.383094 -50 09 24.48085
 2018-Nov-23 13:29  m  21 34 25.364417 -50 09 24.16683
 2018-Nov-23 13:30  m  21 34 25.345742 -50 09 23.85284
 2018-Nov-23 13:31  m  21 34 25.327070 -50 09 23.53886
 2018-Nov-23 13:32  m  21 34 25.308402 -50 09 23.22492
 2018-Nov-23 13:33  m  21 34 25.289736 -50 09 22.91099
 2018-Nov-23 13:34  m  21 34 25.271073 -50 09 22.59709
 2018-Nov-23 13:35  m  21 34 25.252413 -50 09 22.28322
 2018-Nov-23 13:36  m  21 34 25.233757 -50 09 21.96936
 2018-Nov-23 13:37  m  21 34 25.215103 -50 09 21.65554
 2018-Nov-23 13:38  m  21 34 25.196451 -50 09 21.34173
 2018-Nov-23 13:39  m  21 34 25.177803 -50 09 21.02796
 2018-Nov-23 13:40  m  21 34 25.159158 -50 09 20.71420
 2018-Nov-23 13:41  m  21 34 25.140515 -50 09 20.40047
 2018-Nov-23 13:42  m  21 34 25.121876 -50 09 20.08677
 2018-Nov-23 13:43  m  21 34 25.103239 -50 09 19.77309
 2018-Nov-23 13:44  m  21 34 25.084605 -50 09 19.45943
 2018-Nov-23 13:45  m  21 34 25.065974 -50 09 19.14580
 2018-Nov-23 13:46  m  21 34 25.047345 -50 09 18.83220
 2018-Nov-23 13:47  m  21 34 25.028719 -50 09 18.51862
 2018-Nov-23 13:48  m  21 34 25.010096 -50 09 18.20506
 2018-Nov-23 13:49  m  21 34 24.991476 -50 09 17.89153
 2018-Nov-23 13:50  m  21 34 24.972859 -50 09 17.57803
 2018-Nov-23 13:51  m  21 34 24.954244 -50 09 17.26455
 2018-Nov-23 13:52  m  21 34 24.935632 -50 09 16.95109
 2018-Nov-23 13:53  m  21 34 24.917023 -50 09 16.63766
 2018-Nov-23 13:54  m  21 34 24.898416 -50 09 16.32426
 2018-Nov-23 13:55  m  21 34 24.879812 -50 09 16.01088
 2018-Nov-23 13:56  m  21 34 24.861210 -50 09 15.69753
 2018-Nov-23 13:57  m  21 34 24.842611 -50 09 15.38420
 2018-Nov-23 13:58  m  21 34 24.824015 -50 09 15.07090
 2018-Nov-23 13:59  m  21 34 24.805422 -50 09 14.75762
 2018-Nov-23 14:00  m  21 34 24.786831 -50 09 14.44437
 2018-Nov-23 14:01  m  21 34 24.768242 -50 09 14.13115
 2018-Nov-23 14:02  m  21 34 24.749656 -50 09 13.81795
 2018-Nov-23 14:03  m  21 34 24.731073 -50 09 13.50478
 2018-Nov-23 14:04  m  21 34 24.712492 -50 09 13.19163
 2018-Nov-23 14:05  m  21 34 24.693914 -50 09 12.87851
